start=new Date('2021-09-22T00:00:00.000Z').valueOf();
sats=[{"RA_OF_ASC_NODE":"230.9515","COUNTRY_CODE":"US","OBJECT_ID":"2021-027BD","BSTAR":"-0.00104440000000","TLE_LINE2":"2 48143  53.0452 230.9515 0003972  14.8332 345.2801 15.72625863 27544","REV_AT_EPOCH":"2754","APOAPSIS":"354.071","RCS_SIZE":"LARGE","TLE_LINE1":"1 48143U 21027BD  21264.62478630 -.00141367  00000-0 -10444-2 0  9992","DECAY_DATE":null,"PERIAPSIS":"348.725","SEMIMAJOR_AXIS":"6729.533","TIME_SYSTEM":"UTC","MEAN_ANOMALY":"345.2801","CLASSIFICATION_TYPE":"U","NORAD_CAT_ID":"48143","EPOCH":"2021-09-21T14:59:41.536320","REF_FRAME":"TEME","MEAN_MOTION_DOT":"-0.00141367","MEAN_MOTION_DDOT":"0.0000000000000","ARG_OF_PERICENTER":"14.8332","FILE":"3122258","MEAN_MOTION":"15.72625863","GP_ID":"185189160","OBJECT_TYPE":"PAYLOAD","EPHEMERIS_TYPE":"0","INCLINATION":"53.0452","ELEMENT_SET_NO":"999","OBJECT_NAME":"STARLINK-2486","PERIOD":"91.567","SITE":"AFETR","MEAN_ELEMENT_THEORY":"SGP4","CENTER_NAME":"EARTH","LAUNCH_DATE":"2021-04-07","ECCENTRICITY":"0.00039720"},{"REV_AT_EPOCH":"2697","RCS_SIZE":"LARGE","APOAPSIS":"547.555","COUNTRY_CODE":"US","RA_OF_ASC_NODE":"270.1186","BSTAR":"0.00009367300000","TLE_LINE2":"2 48144  53.0559 270.1186 0000470  54.6441 305.4592 15.06394678 26971","OBJECT_ID":"2021-027BE","TIME_SYSTEM":"UTC","SEMIMAJOR_AXIS":"6925.365","PERIAPSIS":"546.904","NORAD_CAT_ID":"48144","CLASSIFICATION_TYPE":"U","MEAN_ANOMALY":"305.4592","TLE_LINE1":"1 48144U 21027BE  21264.43382116  .00001114  00000-0  93673-4 0  9995","DECAY_DATE":null,"EPHEMERIS_TYPE":"0","OBJECT_TYPE":"PAYLOAD","OBJECT_NAME":"STARLINK-2487","INCLINATION":"53.0559","ELEMENT_SET_NO":"999","ARG_OF_PERICENTER":"54.6441","MEAN_MOTION_DOT":"0.00001114","MEAN_MOTION_DDOT":"0.0000000000000","REF_FRAME":"TEME","EPOCH":"2021-09-21T10:24:42.148224","GP_ID":"185157979","MEAN_MOTION":"15.06394678","FILE":"3121847","CENTER_NAME":"EARTH","ECCENTRICITY":"0.00004700","LAUNCH_DATE":"2021-04-07","PERIOD":"95.592","MEAN_ELEMENT_THEORY":"SGP4","SITE":"AFETR"},{"MEAN_MOTION":"15.06395272","GP_ID":"185190162","FILE":"3122258","ARG_OF_PERICENTER":"59.2079","EPOCH":"2021-09-21T16:52:10.236864","REF_FRAME":"TEME","MEAN_MOTION_DDOT":"0.0000000000000","MEAN_MOTION_DOT":"0.00001116","OBJECT_NAME":"STARLINK-2488","INCLINATION":"53.0547","ELEMENT_SET_NO":"999","EPHEMERIS_TYPE":"0","OBJECT_TYPE":"PAYLOAD","SITE":"AFETR","MEAN_ELEMENT_THEORY":"SGP4","PERIOD":"95.592","ECCENTRICITY":"0.00007740","LAUNCH_DATE":"2021-04-07","CENTER_NAME":"EARTH","BSTAR":"0.00009380900000","TLE_LINE2":"2 48145  53.0547 268.9021 0000774  59.2079 300.8987 15.06395272 27022","OBJECT_ID":"2021-027BF","RA_OF_ASC_NODE":"268.9021","COUNTRY_CODE":"US","RCS_SIZE":"LARGE","APOAPSIS":"547.764","REV_AT_EPOCH":"2702","DECAY_DATE":null,"TLE_LINE1":"1 48145U 21027BF  21264.70289626  .00001116  00000-0  93809-4 0  9991","CLASSIFICATION_TYPE":"U","NORAD_CAT_ID":"48145","MEAN_ANOMALY":"300.8987","PERIAPSIS":"546.692","TIME_SYSTEM":"UTC","SEMIMAJOR_AXIS":"6925.363"},{"LAUNCH_DATE":"2021-04-07","ECCENTRICITY":"0.00004790","CENTER_NAME":"EARTH","SITE":"AFETR","MEAN_ELEMENT_THEORY":"SGP4","PERIOD":"95.592","INCLINATION":"53.0552","ELEMENT_SET_NO":"999","OBJECT_NAME":"STARLINK-2489","OBJECT_TYPE":"PAYLOAD","EPHEMERIS_TYPE":"0","FILE":"3122258","GP_ID":"185188910","MEAN_MOTION":"15.06394643","MEAN_MOTION_DOT":"-0.00000700","MEAN_MOTION_DDOT":"0.0000000000000","REF_FRAME":"TEME","EPOCH":"2021-09-21T18:25:02.971200","ARG_OF_PERICENTER":"81.4418","MEAN_ANOMALY":"278.6625","NORAD_CAT_ID":"48146","CLASSIFICATION_TYPE":"U","TIME_SYSTEM":"UTC","SEMIMAJOR_AXIS":"6925.365","PERIAPSIS":"546.898","DECAY_DATE":null,"TLE_LINE1":"1 48146U 21027BG  21264.76739550 -.00000700  00000-0 -28128-4 0  9996","APOAPSIS":"547.562","RCS_SIZE":"LARGE","REV_AT_EPOCH":"2675","OBJECT_ID":"2021-027BG","TLE_LINE2":"2 48146  53.0552 288.6127 0000479  81.4418 278.6625 15.06394643 26752","BSTAR":"-0.00002812800000","COUNTRY_CODE":"US","RA_OF_ASC_NODE":"288.6127"},{"COUNTRY_CODE":"US","RA_OF_ASC_NODE":"295.3001","BSTAR":"0.00007934300000","TLE_LINE2":"2 48147  53.0537 295.3001 0000821  68.4798 291.6279 15.06393740 26622","OBJECT_ID":"2021-027BH","REV_AT_EPOCH":"2662","RCS_SIZE":"LARGE","APOAPSIS":"547.801","TLE_LINE1":"1 48147U 21027BH  21264.36701769  .00000901  00000-0  79343-4 0  9990","DECAY_DATE":null,"SEMIMAJOR_AXIS":"6925.368","TIME_SYSTEM":"UTC","PERIAPSIS":"546.664","NORAD_CAT_ID":"48147","CLASSIFICATION_TYPE":"U","MEAN_ANOMALY":"291.6279","ARG_OF_PERICENTER":"68.4798","MEAN_MOTION_DDOT":"0.0000000000000","MEAN_MOTION_DOT":"0.00000901","EPOCH":"2021-09-21T08:48:30.328416","REF_FRAME":"TEME","GP_ID":"185157247","MEAN_MOTION":"15.06393740","FILE":"3121847","EPHEMERIS_TYPE":"0","OBJECT_TYPE":"PAYLOAD","OBJECT_NAME":"STARLINK-2490","ELEMENT_SET_NO":"999","INCLINATION":"53.0537","PERIOD":"95.593","MEAN_ELEMENT_THEORY":"SGP4","SITE":"AFETR","CENTER_NAME":"EARTH","ECCENTRICITY":"0.00008210","LAUNCH_DATE":"2021-04-07"},{"PERIAPSIS":"546.734","SEMIMAJOR_AXIS":"6925.380","TIME_SYSTEM":"UTC","CLASSIFICATION_TYPE":"U","NORAD_CAT_ID":"48148","MEAN_ANOMALY":"272.2255","TLE_LINE1":"1 48148U 21027BJ  21264.80057354 -.00000812  00000-0 -35628-4 0  9995","DECAY_DATE":null,"REV_AT_EPOCH":"2635","RCS_SIZE":"LARGE","APOAPSIS":"547.756","RA_OF_ASC_NODE":"288.4726","COUNTRY_CODE":"US","TLE_LINE2":"2 48148  53.0569 288.4726 0000738  87.8818 272.2255 15.06389624 26355","BSTAR":"-0.00003562800000","OBJECT_ID":"2021-027BJ","CENTER_NAME":"EARTH","ECCENTRICITY":"0.00007380","LAUNCH_DATE":"2021-04-07","PERIOD":"95.593","SITE":"AFETR","MEAN_ELEMENT_THEORY":"SGP4","EPHEMERIS_TYPE":"0","OBJECT_TYPE":"PAYLOAD","OBJECT_NAME":"STARLINK-2491","INCLINATION":"53.0569","ELEMENT_SET_NO":"999","ARG_OF_PERICENTER":"87.8818","REF_FRAME":"TEME","EPOCH":"2021-09-21T19:12:49.553856","MEAN_MOTION_DOT":"-0.00000812","MEAN_MOTION_DDOT":"0.0000000000000","MEAN_MOTION":"15.06389624","GP_ID":"185164269","FILE":"3122054"},{"PERIOD":"95.592","SITE":"AFETR","MEAN_ELEMENT_THEORY":"SGP4","CENTER_NAME":"EARTH","LAUNCH_DATE":"2021-04-07","ECCENTRICITY":"0.00004660","EPOCH":"2021-09-21T17:55:50.304000","REF_FRAME":"TEME","MEAN_MOTION_DOT":"-0.00001527","MEAN_MOTION_DDOT":"0.0000000000000","ARG_OF_PERICENTER":"61.6821","FILE":"3122258","MEAN_MOTION":"15.06406685","GP_ID":"185189665","OBJECT_TYPE":"PAYLOAD","EPHEMERIS_TYPE":"0","ELEMENT_SET_NO":"999","INCLINATION":"53.0452","OBJECT_NAME":"STARLINK-2492","TLE_LINE1":"1 48149U 21027BK  21264.74711000 -.00001527  00000-0 -83618-4 0  9990","DECAY_DATE":null,"PERIAPSIS":"546.870","TIME_SYSTEM":"UTC","SEMIMAJOR_AXIS":"6925.328","MEAN_ANOMALY":"298.4215","CLASSIFICATION_TYPE":"U","NORAD_CAT_ID":"48149","RA_OF_ASC_NODE":"268.7532","COUNTRY_CODE":"US","OBJECT_ID":"2021-027BK","BSTAR":"-0.00008361800000","TLE_LINE2":"2 48149  53.0452 268.7532 0000466  61.6821 298.4215 15.06406685 27023","REV_AT_EPOCH":"2702","APOAPSIS":"547.516","RCS_SIZE":"LARGE"},{"APOAPSIS":"547.801","RCS_SIZE":"LARGE","REV_AT_EPOCH":"2703","OBJECT_ID":"2021-027BL","BSTAR":"0.00022985000000","TLE_LINE2":"2 48150  53.0652 268.6478 0000911  64.0138 296.0944 15.06414097 27038","RA_OF_ASC_NODE":"268.6478","COUNTRY_CODE":"US","MEAN_ANOMALY":"296.0944","CLASSIFICATION_TYPE":"U","NORAD_CAT_ID":"48150","PERIAPSIS":"546.539","TIME_SYSTEM":"UTC","SEMIMAJOR_AXIS":"6925.305","DECAY_DATE":null,"TLE_LINE1":"1 48150U 21027BL  21264.75079825  .00003145  00000-0  22985-3 0  9990","INCLINATION":"53.0652","ELEMENT_SET_NO":"999","OBJECT_NAME":"STARLINK-2493","OBJECT_TYPE":"PAYLOAD","EPHEMERIS_TYPE":"0","FILE":"3122258","MEAN_MOTION":"15.06414097","GP_ID":"185188413","REF_FRAME":"TEME","EPOCH":"2021-09-21T18:01:08.968800","MEAN_MOTION_DDOT":"0.0000000000000","MEAN_MOTION_DOT":"0.00003145","ARG_OF_PERICENTER":"64.0138","LAUNCH_DATE":"2021-04-07","ECCENTRICITY":"0.00009110","CENTER_NAME":"EARTH","MEAN_ELEMENT_THEORY":"SGP4","SITE":"AFETR","PERIOD":"95.591"},{"GP_ID":"185189161","MEAN_MOTION":"15.06402218","FILE":"3122258","ARG_OF_PERICENTER":"68.0334","MEAN_MOTION_DOT":"0.00000595","MEAN_MOTION_DDOT":"0.0000000000000","EPOCH":"2021-09-21T18:06:28.338624","REF_FRAME":"TEME","OBJECT_NAME":"STARLINK-2503","ELEMENT_SET_NO":"999","INCLINATION":"53.0656","EPHEMERIS_TYPE":"0","OBJECT_TYPE":"PAYLOAD","SITE":"AFETR","MEAN_ELEMENT_THEORY":"SGP4","PERIOD":"95.592","ECCENTRICITY":"0.00008420","LAUNCH_DATE":"2021-04-07","CENTER_NAME":"EARTH","BSTAR":"0.00005884800000","TLE_LINE2":"2 48151  53.0656 268.6443 0000842  68.0334 292.0745 15.06402218 27037","OBJECT_ID":"2021-027BM","COUNTRY_CODE":"US","RA_OF_ASC_NODE":"268.6443","RCS_SIZE":"LARGE","APOAPSIS":"547.790","REV_AT_EPOCH":"2703","DECAY_DATE":null,"TLE_LINE1":"1 48151U 21027BM  21264.75449466  .00000595  00000-0  58848-4 0  9997","NORAD_CAT_ID":"48151","CLASSIFICATION_TYPE":"U","MEAN_ANOMALY":"292.0745","TIME_SYSTEM":"UTC","SEMIMAJOR_AXIS":"6925.342","PERIAPSIS":"546.624"},{"REV_AT_EPOCH":"369","APOAPSIS":"417.135","RCS_SIZE":"LARGE","COUNTRY_CODE":"US","RA_OF_ASC_NODE":"165.7328","OBJECT_ID":"2021-036A","TLE_LINE2":"2 48276  53.0491 165.7328 0001375  68.6252 174.2500 15.50180350  3693","BSTAR":"-0.02086500000000","SEMIMAJOR_AXIS":"6794.336","TIME_SYSTEM":"UTC","PERIAPSIS":"415.267","MEAN_ANOMALY":"174.2500","NORAD_CAT_ID":"48276","CLASSIFICATION_TYPE":"U","TLE_LINE1":"1 48276U 21036A   21264.91667824 -.01084256  00000-0 -20865-1 0  9997","DECAY_DATE":null,"OBJECT_TYPE":"PAYLOAD","EPHEMERIS_TYPE":"0","INCLINATION":"53.0491","ELEMENT_SET_NO":"999","OBJECT_NAME":"STARLINK-2567","MEAN_MOTION_DOT":"-0.01084256","MEAN_MOTION_DDOT":"0.0000000000000","REF_FRAME":"TEME","EPOCH":"2021-09-21T22:00:00.999936","ARG_OF_PERICENTER":"68.6252","FILE":"3122258","GP_ID":"185190177","MEAN_MOTION":"15.50180350","CENTER_NAME":"EARTH","LAUNCH_DATE":"2021-04-29","ECCENTRICITY":"0.00013750","PERIOD":"92.892","MEAN_ELEMENT_THEORY":"SGP4","SITE":"AFETR"}];
